[{"OBJECT_NAME":"OBJECT A","OBJECT_ID":"2023-085A","EPOCH":"2026-03-09T21:42:39.504096","MEAN_MOTION":15.28003151,"ECCENTRICITY":0.00073195,"INCLINATION":97.4858,"RA_OF_ASC_NODE":178.2033,"ARG_OF_PERICENTER":32.2499,"MEAN_ANOMALY":327.9186,"EPHEMERIS_TYPE":0,"CLASSIFICATION_TYPE":"U","NORAD_CAT_ID":57004,"ELEMENT_SET_NO":999,"REV_AT_EPOCH":15139,"BSTAR":0.00063583858,"MEAN_MOTION_DOT":0.0001733,"MEAN_MOTION_DDOT":0},{"OBJECT_NAME":"STARLINK-32938","OBJECT_ID":"2025-048U","EPOCH":"2026-03-09T02:42:48.949056","MEAN_MOTION":15.27619256,"ECCENTRICITY":0.0001638,"INCLINATION":42.9993,"RA_OF_ASC_NODE":88.5968,"ARG_OF_PERICENTER":281.6185,"MEAN_ANOMALY":78.4483,"EPHEMERIS_TYPE":0,"CLASSIFICATION_TYPE":"U","NORAD_CAT_ID":63201,"ELEMENT_SET_NO":999,"REV_AT_EPOCH":5700,"BSTAR":0.0010035032,"MEAN_MOTION_DOT":0.00027488,"MEAN_MOTION_DDOT":0}]
